COMMENT,ORIGINATOR,NORAD_CAT_ID,OBJECT_NAME,OBJECT_TYPE,CLASSIFICATION_TYPE,INTLDES,EPOCH,EPOCH_MICROSECONDS,MEAN_MOTION,ECCENTRICITY,INCLINATION,RA_OF_ASC_NODE,ARG_OF_PERICENTER,MEAN_ANOMALY,EPHEMERIS_TYPE,ELEMENT_SET_NO,REV_AT_EPOCH,BSTAR,MEAN_MOTION_DOT,MEAN_MOTION_DDOT,FILE,TLE_LINE0,TLE_LINE1,TLE_LINE2,OBJECT_ID,OBJECT_NUMBER,SEMIMAJOR_AXIS,PERIOD,APOGEE,PERIGEE,DECAYED
"GENERATED VIA SPACETRACK.ORG API","18 SPCS","48890","SPACEBEE-104","PAYLOAD","U","21059M","2022-06-01 15:07:52","137984","15.15651464","0.000943","97.5535","282.2589","156.8268","203.3392","0","999","5153","0.00038684","0.00007299","0","3475899","0 SPACEBEE-104","1 48890U 21059M   22152.63046456  .00007299  00000-0  38684-3 0  9991","2 48890  97.5535 282.2589 0009430 156.8268 203.3392 15.15651464 51537","2021-059M","48890","6897.138","95.009","525.507","512.499","0"
"GENERATED VIA SPACETRACK.ORG API","18 SPCS","48890","SPACEBEE-104","PAYLOAD","U","21059M","2022-06-01 15:07:52","137984","15.15651464","0.000943","97.5535","282.2589","156.8268","203.3392","0","999","5153","0.00038684","0.00007299","0","3476255","0 SPACEBEE-104","1 48890U 21059M   22152.63046456  .00007299  00000-0  38684-3 0  9991","2 48890  97.5535 282.2589 0009430 156.8268 203.3392 15.15651464 51537","2021-059M","48890","6897.138","95.009","525.507","512.499","0"
"GENERATED VIA SPACETRACK.ORG API","18 SPCS","48890","SPACEBEE-104","PAYLOAD","U","21059M","2022-06-02 08:33:37","495008","15.15660032","0.0009436","97.5537","282.981","154.5076","205.6624","0","999","5164","0.00030161","0.00005676","0","3477482","0 SPACEBEE-104","1 48890U 21059M   22153.35668397  .00005676  00000-0  30161-3 0  9994","2 48890  97.5537 282.9810 0009436 154.5076 205.6624 15.15660032 51647","2021-059M","48890","6897.112","95.008","525.486","512.469","0"
"GENERATED VIA SPACETRACK.ORG API","18 SPCS","48890","SPACEBEE-104","PAYLOAD","U","21059M","2022-06-03 03:34:26","526432","15.15670306","0.0009504","97.5538","283.7689","151.8838","208.291","0","999","5176","0.00030098","0.00005666","0","3478200","0 SPACEBEE-104","1 48890U 21059M   22154.14891813  .00005666  00000-0  30098-3 0  9991","2 48890  97.5538 283.7689 0009504 151.8838 208.2910 15.15670306 51768","2021-059M","48890","6897.081","95.007","525.501","512.391","0"
"GENERATED VIA SPACETRACK.ORG API","18 SPCS","48890","SPACEBEE-104","PAYLOAD","U","21059M","2022-06-03 08:19:38","713440","15.15672862","0.0009513","97.5537","283.9659","151.3749","208.8007","0","999","5179","0.0002977","0.00005604","0","3479192","0 SPACEBEE-104","1 48890U 21059M   22154.34697585  .00005604  00000-0  29770-3 0  9990","2 48890  97.5537 283.9659 0009513 151.3749 208.8007 15.15672862 51797","2021-059M","48890","6897.074","95.007","525.500","512.377","0"
"GENERATED VIA SPACETRACK.ORG API","18 SPCS","48890","SPACEBEE-104","PAYLOAD","U","21059M","2022-06-03 14:39:54","930816","15.1567568","0.0009535","97.5537","284.2286","150.62","209.557","0","999","5183","0.000289","0.00005439","0","3479630","0 SPACEBEE-104","1 48890U 21059M   22154.61105244  .00005439  00000-0  28900-3 0  9996","2 48890  97.5537 284.2286 0009535 150.6200 209.5570 15.15675680 51834","2021-059M","48890","6897.065","95.007","525.506","512.354","0"
"GENERATED VIA SPACETRACK.ORG API","18 SPCS","48890","SPACEBEE-104","PAYLOAD","U","21059M","2022-06-04 08:05:39","307200","15.15683634","0.0009559","97.5536","284.9509","148.5156","211.6651","0","999","5194","0.000279","0.00005249","0","3480451","0 SPACEBEE-104","1 48890U 21059M   22155.33726050  .00005249  00000-0  27900-3 0  9998","2 48890  97.5536 284.9509 0009559 148.5156 211.6651 15.15683634 51944","2021-059M","48890","6897.041","95.007","525.499","512.313","0"
"GENERATED VIA SPACETRACK.ORG API","18 SPCS","48890","SPACEBEE-104","PAYLOAD","U","21059M","2022-06-04 08:05:39","307200","15.15683634","0.0009559","97.5536","284.9509","148.5156","211.6651","0","999","5194","0.000279","0.00005249","0","3480894","0 SPACEBEE-104","1 48890U 21059M   22155.33726050  .00005249  00000-0  27900-3 0  9998","2 48890  97.5536 284.9509 0009559 148.5156 211.6651 15.15683634 51944","2021-059M","48890","6897.041","95.007","525.499","512.313","0"
"GENERATED VIA SPACETRACK.ORG API","18 SPCS","48890","SPACEBEE-104","PAYLOAD","U","21059M","2022-06-04 14:25:55","370784","15.1568669","0.0009568","97.5535","285.2135","147.745","212.4369","0","999","5198","0.00029007","0.00005461","0","3481313","0 SPACEBEE-104","1 48890U 21059M   22155.60133531  .00005461  00000-0  29007-3 0  9990","2 48890  97.5535 285.2135 0009568 147.7450 212.4369 15.15686690 51984","2021-059M","48890","6897.032","95.006","525.496","512.298","0"
"GENERATED VIA SPACETRACK.ORG API","18 SPCS","48890","SPACEBEE-104","PAYLOAD","U","21059M","2022-06-05 07:51:39","327264","15.15694289","0.0009593","97.5535","285.9358","145.7152","214.4701","0","999","5209","0.00028328","0.00005332","0","3482995","0 SPACEBEE-104","1 48890U 21059M   22156.32753851  .00005332  00000-0  28328-3 0  9995","2 48890  97.5535 285.9358 0009593 145.7152 214.4701 15.15694289 52091","2021-059M","48890","6897.009","95.006","525.490","512.257","0"
"GENERATED VIA SPACETRACK.ORG API","18 SPCS","48890","SPACEBEE-104","PAYLOAD","U","21059M","2022-06-05 22:07:15","74400","15.15701298","0.0009595","97.5535","286.5268","144.1254","216.0625","0","999","5218","0.00031687","0.00005974","0","3483120","0 SPACEBEE-104","1 48890U 21059M   22156.92170225  .00005974  00000-0  31687-3 0  9993","2 48890  97.5535 286.5268 0009595 144.1254 216.0625 15.15701298 52188","2021-059M","48890","6896.987","95.006","525.470","512.235","0"
"GENERATED VIA SPACETRACK.ORG API","18 SPCS","48890","SPACEBEE-104","PAYLOAD","U","21059M","2022-06-06 07:37:38","707968","15.15706186","0.0009628","97.5534","286.9207","142.9462","217.2437","0","999","5224","0.00031657","0.0000597","0","3484104","0 SPACEBEE-104","1 48890U 21059M   22157.31780912  .00005970  00000-0  31657-3 0  9990","2 48890  97.5534 286.9207 0009628 142.9462 217.2437 15.15706186 52240","2021-059M","48890","6896.972","95.005","525.478","512.197","0"
"GENERATED VIA SPACETRACK.ORG API","18 SPCS","48890","SPACEBEE-104","PAYLOAD","U","21059M","2022-06-06 18:43:06","157632","15.15713453","0.0009636","97.5533","287.3803","141.6072","218.5848","0","999","5231","0.00036298","0.00006857","0","3484350","0 SPACEBEE-104","1 48890U 21059M   22157.77993238  .00006857  00000-0  36298-3 0  9998","2 48890  97.5533 287.3803 0009636 141.6072 218.5848 15.15713453 52311","2021-059M","48890","6896.950","95.005","525.461","512.170","0"
"GENERATED VIA SPACETRACK.ORG API","18 SPCS","48890","SPACEBEE-104","PAYLOAD","U","21059M","2022-06-07 04:13:29","580384","15.15718134","0.0009672","97.5533","287.7742","140.3459","219.8483","0","999","5237","0.00035673","0.00006738","0","3484456","0 SPACEBEE-104","1 48890U 21059M   22158.17603681  .00006738  00000-0  35673-3 0  9997","2 48890  97.5533 287.7742 0009672 140.3459 219.8483 15.15718134 52378","2021-059M","48890","6896.936","95.004","525.472","512.131","0"
"GENERATED VIA SPACETRACK.ORG API","18 SPCS","48890","SPACEBEE-104","PAYLOAD","U","21059M","2022-06-07 07:23:37","365504","15.15719832","0.0009688","97.5533","287.9055","139.782","220.413","0","999","5239","0.00035374","0.00006682","0","3484919","0 SPACEBEE-104","1 48890U 21059M   22158.30807136  .00006682  00000-0  35374-3 0  9999","2 48890  97.5533 287.9055 0009688 139.7820 220.4130 15.15719832 52393","2021-059M","48890","6896.931","95.004","525.478","512.114","0"
"GENERATED VIA SPACETRACK.ORG API","18 SPCS","48890","SPACEBEE-104","PAYLOAD","U","21059M","2022-06-07 20:04:08","285664","15.15728436","0.0009719","97.5533","288.4308","138.0827","222.1151","0","999","5247","0.0003798","0.00007181","0","3485136","0 SPACEBEE-104","1 48890U 21059M   22158.83620701  .00007181  00000-0  37980-3 0  9998","2 48890  97.5533 288.4308 0009719 138.0827 222.1151 15.15728436 52475","2021-059M","48890","6896.905","95.004","525.473","512.067","0"
"GENERATED VIA SPACETRACK.ORG API","18 SPCS","48890","SPACEBEE-104","PAYLOAD","U","21059M","2022-06-08 07:09:35","152128","15.15734807","0.0009759","97.5533","288.8905","136.6273","223.5729","0","999","5254","0.00036384","0.00006878","0","3485462","0 SPACEBEE-104","1 48890U 21059M   22159.29832352  .00006878  00000-0  36384-3 0  9995","2 48890  97.5533 288.8905 0009759 136.6273 223.5729 15.15734807 52548","2021-059M","48890","6896.886","95.003","525.481","512.020","0"
"GENERATED VIA SPACETRACK.ORG API","18 SPCS","48890","SPACEBEE-104","PAYLOAD","U","21059M","2022-06-08 07:09:35","152128","15.15734807","0.0009759","97.5533","288.8905","136.6273","223.5729","0","999","5254","0.00036384","0.00006878","0","3485745","0 SPACEBEE-104","1 48890U 21059M   22159.29832352  .00006878  00000-0  36384-3 0  9995","2 48890  97.5533 288.8905 0009759 136.6273 223.5729 15.15734807 52548","2021-059M","48890","6896.886","95.003","525.481","512.020","0"
"GENERATED VIA SPACETRACK.ORG API","18 SPCS","48890","SPACEBEE-104","PAYLOAD","U","21059M","2022-06-08 19:50:05","620416","15.15742796","0.0009786","97.5533","289.4158","134.8899","225.3129","0","999","5262","0.00035872","0.00006781","0","3486517","0 SPACEBEE-104","1 48890U 21059M   22159.82645394  .00006781  00000-0  35872-3 0  9996","2 48890  97.5533 289.4158 0009786 134.8899 225.3129 15.15742796 52628","2021-059M","48890","6896.861","95.003","525.476","511.977","0"
"GENERATED VIA SPACETRACK.ORG API","18 SPCS","48890","SPACEBEE-104","PAYLOAD","U","21059M","2022-06-09 08:30:35","862336","15.15750162","0.0009832","97.5533","289.941","133.1529","227.0527","0","999","5270","0.00034108","0.00006446","0","3488214","0 SPACEBEE-104","1 48890U 21059M   22160.35458174  .00006446  00000-0  34108-3 0  9993","2 48890  97.5533 289.9410 0009832 133.1529 227.0527 15.15750162 52704","2021-059M","48890","6896.839","95.002","525.485","511.923","0"
